<?xml version="1.0" encoding="UTF-8"?>
<ndm xmlns:xsi="http://www.w3.org/2001/XMLSchema-instance" xsi:noNamespaceSchemaLocation="https://sanaregistry.org/r/ndmxml_unqualified/ndmxml-2.0.0-master-2.0.xsd">
<omm id="CCSDS_OMM_VERS" version="2.0">
<header><CREATION_DATE/><ORIGINATOR/></header><body><segment><metadata><OBJECT_NAME>ORBCOMM FM20</OBJECT_NAME><OBJECT_ID>1998-046D</OBJECT_ID><CENTER_NAME>EARTH</CENTER_NAME><REF_FRAME>TEME</REF_FRAME><TIME_SYSTEM>UTC</TIME_SYSTEM><MEAN_ELEMENT_THEORY>SGP4</MEAN_ELEMENT_THEORY></metadata><data><meanElements><EPOCH>2024-07-06T05:55:59.782080</EPOCH><MEAN_MOTION>14.35418229</MEAN_MOTION><ECCENTRICITY>.000044</ECCENTRICITY><INCLINATION>44.9964</INCLINATION><RA_OF_ASC_NODE>17.4631</RA_OF_ASC_NODE><ARG_OF_PERICENTER>179.4613</ARG_OF_PERICENTER><MEAN_ANOMALY>180.6235</MEAN_ANOMALY></meanElements><tleParameters><EPHEMERIS_TYPE>0</EPHEMERIS_TYPE><CLASSIFICATION_TYPE>U</CLASSIFICATION_TYPE><NORAD_CAT_ID>25416</NORAD_CAT_ID><ELEMENT_SET_NO>999</ELEMENT_SET_NO><REV_AT_EPOCH>35452</REV_AT_EPOCH><BSTAR>.49765E-3</BSTAR><MEAN_MOTION_DOT>.1301E-4</MEAN_MOTION_DOT><MEAN_MOTION_DDOT>0</MEAN_MOTION_DDOT></tleParameters></data></segment></body></omm>
<omm id="CCSDS_OMM_VERS" version="2.0">
<header><CREATION_DATE/><ORIGINATOR/></header><body><segment><metadata><OBJECT_NAME>ORBCOMM FM15</OBJECT_NAME><OBJECT_ID>1998-046F</OBJECT_ID><CENTER_NAME>EARTH</CENTER_NAME><REF_FRAME>TEME</REF_FRAME><TIME_SYSTEM>UTC</TIME_SYSTEM><MEAN_ELEMENT_THEORY>SGP4</MEAN_ELEMENT_THEORY></metadata><data><meanElements><EPOCH>2024-07-06T13:13:01.983360</EPOCH><MEAN_MOTION>14.36183982</MEAN_MOTION><ECCENTRICITY>.0002444</ECCENTRICITY><INCLINATION>44.9986</INCLINATION><RA_OF_ASC_NODE>15.5508</RA_OF_ASC_NODE><ARG_OF_PERICENTER>3.6331</ARG_OF_PERICENTER><MEAN_ANOMALY>356.4534</MEAN_ANOMALY></meanElements><tleParameters><EPHEMERIS_TYPE>0</EPHEMERIS_TYPE><CLASSIFICATION_TYPE>U</CLASSIFICATION_TYPE><NORAD_CAT_ID>25418</NORAD_CAT_ID><ELEMENT_SET_NO>999</ELEMENT_SET_NO><REV_AT_EPOCH>35451</REV_AT_EPOCH><BSTAR>.55698E-3</BSTAR><MEAN_MOTION_DOT>.1498E-4</MEAN_MOTION_DOT><MEAN_MOTION_DDOT>0</MEAN_MOTION_DDOT></tleParameters></data></segment></body></omm>
<omm id="CCSDS_OMM_VERS" version="2.0">
<header><CREATION_DATE/><ORIGINATOR/></header><body><segment><metadata><OBJECT_NAME>ORBCOMM FM14</OBJECT_NAME><OBJECT_ID>1998-046G</OBJECT_ID><CENTER_NAME>EARTH</CENTER_NAME><REF_FRAME>TEME</REF_FRAME><TIME_SYSTEM>UTC</TIME_SYSTEM><MEAN_ELEMENT_THEORY>SGP4</MEAN_ELEMENT_THEORY></metadata><data><meanElements><EPOCH>2024-07-06T13:38:03.625728</EPOCH><MEAN_MOTION>14.36378484</MEAN_MOTION><ECCENTRICITY>.0001269</ECCENTRICITY><INCLINATION>44.9976</INCLINATION><RA_OF_ASC_NODE>14.4985</RA_OF_ASC_NODE><ARG_OF_PERICENTER>340.8798</ARG_OF_PERICENTER><MEAN_ANOMALY>19.2002</MEAN_ANOMALY></meanElements><tleParameters><EPHEMERIS_TYPE>0</EPHEMERIS_TYPE><CLASSIFICATION_TYPE>U</CLASSIFICATION_TYPE><NORAD_CAT_ID>25419</NORAD_CAT_ID><ELEMENT_SET_NO>999</ELEMENT_SET_NO><REV_AT_EPOCH>35447</REV_AT_EPOCH><BSTAR>.61697E-3</BSTAR><MEAN_MOTION_DOT>.1681E-4</MEAN_MOTION_DOT><MEAN_MOTION_DDOT>0</MEAN_MOTION_DDOT></tleParameters></data></segment></body></omm>
<omm id="CCSDS_OMM_VERS" version="2.0">
<header><CREATION_DATE/><ORIGINATOR/></header><body><segment><metadata><OBJECT_NAME>ORBCOMM FM13</OBJECT_NAME><OBJECT_ID>1998-046H</OBJECT_ID><CENTER_NAME>EARTH</CENTER_NAME><REF_FRAME>TEME</REF_FRAME><TIME_SYSTEM>UTC</TIME_SYSTEM><MEAN_ELEMENT_THEORY>SGP4</MEAN_ELEMENT_THEORY></metadata><data><meanElements><EPOCH>2024-07-06T13:46:25.107744</EPOCH><MEAN_MOTION>14.35610489</MEAN_MOTION><ECCENTRICITY>.0003728</ECCENTRICITY><INCLINATION>44.9996</INCLINATION><RA_OF_ASC_NODE>19.6753</RA_OF_ASC_NODE><ARG_OF_PERICENTER>339.4949</ARG_OF_PERICENTER><MEAN_ANOMALY>20.5748</MEAN_ANOMALY></meanElements><tleParameters><EPHEMERIS_TYPE>0</EPHEMERIS_TYPE><CLASSIFICATION_TYPE>U</CLASSIFICATION_TYPE><NORAD_CAT_ID>25420</NORAD_CAT_ID><ELEMENT_SET_NO>999</ELEMENT_SET_NO><REV_AT_EPOCH>35353</REV_AT_EPOCH><BSTAR>.50525E-3</BSTAR><MEAN_MOTION_DOT>.1329E-4</MEAN_MOTION_DOT><MEAN_MOTION_DDOT>0</MEAN_MOTION_DDOT></tleParameters></data></segment></body></omm>
<omm id="CCSDS_OMM_VERS" version="2.0">
<header><CREATION_DATE/><ORIGINATOR/></header><body><segment><metadata><OBJECT_NAME>ORBCOMM FM21</OBJECT_NAME><OBJECT_ID>1998-053A</OBJECT_ID><CENTER_NAME>EARTH</CENTER_NAME><REF_FRAME>TEME</REF_FRAME><TIME_SYSTEM>UTC</TIME_SYSTEM><MEAN_ELEMENT_THEORY>SGP4</MEAN_ELEMENT_THEORY></metadata><data><meanElements><EPOCH>2024-07-06T10:59:58.698528</EPOCH><MEAN_MOTION>14.35509966</MEAN_MOTION><ECCENTRICITY>.0001729</ECCENTRICITY><INCLINATION>45.0089</INCLINATION><RA_OF_ASC_NODE>104.6266</RA_OF_ASC_NODE><ARG_OF_PERICENTER>329.9504</ARG_OF_PERICENTER><MEAN_ANOMALY>30.1243</MEAN_ANOMALY></meanElements><tleParameters><EPHEMERIS_TYPE>0</EPHEMERIS_TYPE><CLASSIFICATION_TYPE>U</CLASSIFICATION_TYPE><NORAD_CAT_ID>25475</NORAD_CAT_ID><ELEMENT_SET_NO>999</ELEMENT_SET_NO><REV_AT_EPOCH>34753</REV_AT_EPOCH><BSTAR>.52296E-3</BSTAR><MEAN_MOTION_DOT>.1377E-4</MEAN_MOTION_DOT><MEAN_MOTION_DDOT>0</MEAN_MOTION_DDOT></tleParameters></data></segment></body></omm>
<omm id="CCSDS_OMM_VERS" version="2.0">
<header><CREATION_DATE/><ORIGINATOR/></header><body><segment><metadata><OBJECT_NAME>ORBCOMM FM22</OBJECT_NAME><OBJECT_ID>1998-053B</OBJECT_ID><CENTER_NAME>EARTH</CENTER_NAME><REF_FRAME>TEME</REF_FRAME><TIME_SYSTEM>UTC</TIME_SYSTEM><MEAN_ELEMENT_THEORY>SGP4</MEAN_ELEMENT_THEORY></metadata><data><meanElements><EPOCH>2024-07-06T11:36:19.731744</EPOCH><MEAN_MOTION>14.36079412</MEAN_MOTION><ECCENTRICITY>.00029</ECCENTRICITY><INCLINATION>45.0084</INCLINATION><RA_OF_ASC_NODE>101.5495</RA_OF_ASC_NODE><ARG_OF_PERICENTER>307.5365</ARG_OF_PERICENTER><MEAN_ANOMALY>52.5218</MEAN_ANOMALY></meanElements><tleParameters><EPHEMERIS_TYPE>0</EPHEMERIS_TYPE><CLASSIFICATION_TYPE>U</CLASSIFICATION_TYPE><NORAD_CAT_ID>25476</NORAD_CAT_ID><ELEMENT_SET_NO>999</ELEMENT_SET_NO><REV_AT_EPOCH>34753</REV_AT_EPOCH><BSTAR>.54025E-3</BSTAR><MEAN_MOTION_DOT>.1445E-4</MEAN_MOTION_DOT><MEAN_MOTION_DDOT>0</MEAN_MOTION_DDOT></tleParameters></data></segment></body></omm>

</ndm>
