ORBCOMM FM20            
1 25416U 98046D   24188.24721970  .00001301  00000+0  49765-3 0  9998
2 25416  44.9964  17.4631 0000440 179.4613 180.6235 14.35418229354520
ORBCOMM FM15            
1 25418U 98046F   24188.55071740  .00001498  00000+0  55698-3 0  9996
2 25418  44.9986  15.5508 0002444   3.6331 356.4534 14.36183982354519
ORBCOMM FM14            
1 25419U 98046G   24188.56809752  .00001681  00000+0  61697-3 0  9990
2 25419  44.9976  14.4985 0001269 340.8798  19.2002 14.36378484354475
ORBCOMM FM13            
1 25420U 98046H   24188.57390171  .00001329  00000+0  50525-3 0  9990
2 25420  44.9996  19.6753 0003728 339.4949  20.5748 14.35610489353534
ORBCOMM FM21            
1 25475U 98053A   24188.45831827  .00001377  00000+0  52296-3 0  9993
2 25475  45.0089 104.6266 0001729 329.9504  30.1243 14.35509966347530
ORBCOMM FM22            
1 25476U 98053B   24188.48356171  .00001445  00000+0  54025-3 0  9999
2 25476  45.0084 101.5495 0002900 307.5365  52.5218 14.36079412347534
